[{"OBJECT_NAME":"FORGESTAR-1","OBJECT_ID":"2025-135U","EPOCH":"2026-03-09T20:36:20.241504","MEAN_MOTION":15.22632363,"ECCENTRICITY":0.00019317,"INCLINATION":97.456,"RA_OF_ASC_NODE":185.1959,"ARG_OF_PERICENTER":126.9955,"MEAN_ANOMALY":233.1458,"EPHEMERIS_TYPE":0,"CLASSIFICATION_TYPE":"U","NORAD_CAT_ID":64546,"ELEMENT_SET_NO":999,"REV_AT_EPOCH":3978,"BSTAR":0.0004351723,"MEAN_MOTION_DOT":0.00010058,"MEAN_MOTION_DDOT":0},{"OBJECT_NAME":"OBJECT X","OBJECT_ID":"2025-313X","EPOCH":"2026-03-09T22:11:10.492800","MEAN_MOTION":15.22236742,"ECCENTRICITY":0.00140663,"INCLINATION":97.4034,"RA_OF_ASC_NODE":145.2465,"ARG_OF_PERICENTER":355.6443,"MEAN_ANOMALY":4.4668,"EPHEMERIS_TYPE":0,"CLASSIFICATION_TYPE":"U","NORAD_CAT_ID":67269,"ELEMENT_SET_NO":999,"REV_AT_EPOCH":1085,"BSTAR":0.0006925154,"MEAN_MOTION_DOT":0.00015915,"MEAN_MOTION_DDOT":0}]
